[{"OBJECT_NAME":"GEOSCAN 6 (RS92S6)","OBJECT_ID":"2025-155D","EPOCH":"2026-03-09T21:52:39.201312","MEAN_MOTION":15.27985277,"ECCENTRICITY":0.00087677,"INCLINATION":97.4466,"RA_OF_ASC_NODE":37.2933,"ARG_OF_PERICENTER":153.7679,"MEAN_ANOMALY":206.4006,"EPHEMERIS_TYPE":0,"CLASSIFICATION_TYPE":"U","NORAD_CAT_ID":64879,"ELEMENT_SET_NO":999,"REV_AT_EPOCH":6559,"BSTAR":0.00053762354,"MEAN_MOTION_DOT":0.00014633,"MEAN_MOTION_DDOT":0},{"OBJECT_NAME":"STARLINK-35839","OBJECT_ID":"2025-303G","EPOCH":"2026-03-09T01:21:46.920384","MEAN_MOTION":15.27606005,"ECCENTRICITY":0.00034148,"INCLINATION":43.0022,"RA_OF_ASC_NODE":314.7014,"ARG_OF_PERICENTER":257.7968,"MEAN_ANOMALY":102.2502,"EPHEMERIS_TYPE":0,"CLASSIFICATION_TYPE":"U","NORAD_CAT_ID":67169,"ELEMENT_SET_NO":999,"REV_AT_EPOCH":1263,"BSTAR":0.0010184918,"MEAN_MOTION_DOT":0.00027896,"MEAN_MOTION_DDOT":0}]
